NORAD_CAT_ID,OBJECT_NAME,OBJECT_TYPE,EPOCH,MEAN_MOTION,ECCENTRICITY,INCLINATION,RA_OF_ASC_NODE,ARG_OF_PERICENTER,MEAN_ANOMALY,BSTAR,MEAN_MOTION_DOT,MEAN_MOTION_DDOT,TLE_LINE0,TLE_LINE1,TLE_LINE2,SEMIMAJOR_AXIS,PERIOD,APOGEE,PERIGEE,DECAYED
53623.0,STARLINK-4573,PAYLOAD,2022-12-16 03:10:18,15.08845152,0.0001781,53.2174,129.2277,53.6592,306.4565,-5.5503e-05,-1.171e-05,0.0,0 STARLINK-4573,1 53623U 22104AM  22350.13216302 -.00001171  00000-0 -55503-4 0  9992,2 53623  53.2174 129.2277 0001781  53.6592 306.4565 15.08845152 16993,6917.865,95.437,540.962,538.498,0.0
53623.0,STARLINK-4573,PAYLOAD,2022-12-16 12:42:37,15.08851139,0.0001811,53.217,127.4432,56.29,303.8264,-4.4848e-06,-3.6000000000000007e-06,0.0,0 STARLINK-4573,1 53623U 22104AM  22350.52959535 -.00000360  00000-0 -44848-5 0  9997,2 53623  53.2170 127.4432 0001811  56.2900 303.8264 15.08851139 17055,6917.846,95.437,540.964,538.4590000000002,0.0
53623.0,STARLINK-4573,PAYLOAD,2022-12-16 15:53:23,15.08842782,0.000173,53.2166,126.849,43.8595,316.2534,-5.249e-05,-1.123e-05,0.0,0 STARLINK-4573,1 53623U 22104AM  22350.66208127 -.00001123  00000-0 -52490-4 0  9995,2 53623  53.2166 126.8490 0001730  43.8595 316.2534 15.08842782 17073,6917.871999999999,95.437,540.934,538.54,0.0
53623.0,STARLINK-4573,PAYLOAD,2022-12-16 19:04:10,15.088411,0.0001822,53.2165,126.2541,52.1938,307.9219,-5.5242e-05,-1.167e-05,0.0,0 STARLINK-4573,1 53623U 22104AM  22350.79456295 -.00001167  00000-0 -55242-4 0  9996,2 53623  53.2165 126.2541 0001822  52.1938 307.9219 15.08841100 17776,6917.877,95.437,541.002,538.482,0.0
53623.0,STARLINK-4573,PAYLOAD,2022-12-17 12:33:25,15.088304,0.000169,53.2168,122.983,46.8385,313.2748,1.7137000000000002e-05,-1.5e-07,0.0,0 STARLINK-4573,1 53623U 22104AM  22351.52320759 -.00000015  00000-0  17137-4 0  9994,2 53623  53.2168 122.9830 0001690  46.8385 313.2748 15.08830400 17882,6917.91,95.438,540.944,538.606,0.0
53623.0,STARLINK-4573,PAYLOAD,2022-12-17 15:44:11,15.08832629,0.0001658,53.2169,122.3879,47.2701,312.843,3.774800000000001e-05,3.13e-06,0.0,0 STARLINK-4573,1 53623U 22104AM  22351.65568595  .00000313  00000-0  37748-4 0  9990,2 53623  53.2169 122.3879 0001658  47.2701 312.8430 15.08832629 17227,6917.903,95.438,540.915,538.621,0.0
53623.0,STARLINK-4573,PAYLOAD,2022-12-17 18:54:57,15.08836282,0.0001676999999999,53.2171,121.7933,43.9632,316.1493,5.005100000000001e-05,5.09e-06,0.0,0 STARLINK-4573,1 53623U 22104AM  22351.78816366  .00000509  00000-0  50051-4 0  9995,2 53623  53.2171 121.7933 0001677  43.9632 316.1493 15.08836282 17923,6917.892,95.438,540.9169999999998,538.597,0.0
53623.0,STARLINK-4573,PAYLOAD,2022-12-18 01:16:29,15.08841469,0.000168,53.2172,120.6039,44.379,315.7337,8.555100000000001e-05,1.074e-05,0.0,0 STARLINK-4573,1 53623U 22104AM  22352.05311916  .00001074  00000-0  85551-4 0  9998,2 53623  53.2172 120.6039 0001680  44.3790 315.7337 15.08841469 17287,6917.876,95.437,540.903,538.5790000000002,0.0
53623.0,STARLINK-4573,PAYLOAD,2022-12-18 20:21:07,15.08835708,0.000176,53.2178,117.0356,44.2709,315.8424,-5.6904e-05,-1.194e-05,0.0,0 STARLINK-4573,1 53623U 22104AM  22352.84800740 -.00001194  00000-0 -56904-4 0  9998,2 53623  53.2178 117.0356 0001760  44.2709 315.8424 15.08835708 18089,6917.894,95.438,540.976,538.5409999999998,0.0
53623.0,STARLINK-4573,PAYLOAD,2022-12-19 15:25:45,15.08840678,0.0001739,53.2178,113.4679,41.0164,319.0958,3.7184e-05,3.04e-06,0.0,0 STARLINK-4573,1 53623U 22104AM  22353.64288243  .00000304  00000-0  37184-4 0  9994,2 53623  53.2178 113.4679 0001739  41.0164 319.0958 15.08840678 18207,6917.878000000002,95.438,540.946,538.54,0.0
53623.0,STARLINK-4573,PAYLOAD,2022-12-19 18:36:31,15.08843968,0.0001734,53.2177,112.873,42.6214,317.4913,5.3628e-05,5.66e-06,0.0,0 STARLINK-4573,1 53623U 22104AM  22353.77535947  .00000566  00000-0  53628-4 0  9995,2 53623  53.2177 112.8730 0001734  42.6214 317.4913 15.08843968 17549,6917.868,95.437,540.933,538.534,0.0
53623.0,STARLINK-4573,PAYLOAD,2022-12-20 00:58:03,15.08841421,0.0001781,53.2187,111.685,47.1239,312.9903,6.8254999999999984e-06,-1.79e-06,0.0,0 STARLINK-4573,1 53623U 22104AM  22354.04032277 -.00000179  00000-0  68255-5 0  9998,2 53623  53.2187 111.6850 0001781  47.1239 312.9903 15.08841421 18260,6917.876,95.437,540.9730000000002,538.509,0.0
53623.0,STARLINK-4573,PAYLOAD,2022-12-20 20:02:41,15.08840157,0.0001768,53.2185,108.1155,44.642,315.4715,-9.6101e-06,-4.41e-06,0.0,0 STARLINK-4573,1 53623U 22104AM  22354.83520103 -.00000441  00000-0 -96101-5 0  9999,2 53623  53.2185 108.1155 0001768  44.6420 315.4715 15.08840157 17708,6917.88,95.438,540.9680000000002,538.5219999999998,0.0
53623.0,STARLINK-4573,PAYLOAD,2022-12-21 15:07:19,15.08836657,0.0001904,53.2175,104.5466,43.0151,317.099,-9.9476e-05,-1.871e-05,0.0,0 STARLINK-4573,1 53623U 22104AM  22355.63009055 -.00001871  00000-0 -99476-4 0  9991,2 53623  53.2175 104.5466 0001904  43.0151 317.0990 15.08836657 17824,6917.891,95.438,541.073,538.438,0.0
53623.0,STARLINK-4573,PAYLOAD,2022-12-22 00:39:39,15.08830604,0.0001892,53.2175,102.7635,42.6675,317.4463,-0.00012763,-2.318e-05,0.0,0 STARLINK-4573,1 53623U 22104AM  22356.02753692 -.00002318  00000-0 -12763-3 0  9998,2 53623  53.2175 102.7635 0001892  42.6675 317.4463 15.08830604 17885,6917.909000000002,95.438,541.0830000000002,538.465,0.0
53623.0,STARLINK-4573,PAYLOAD,2022-12-22 13:22:43,15.08836143,0.0001771999999999,53.2176,100.3847,38.1558,321.9559,-5.3595e-05,-1.141e-05,0.0,0 STARLINK-4573,1 53623U 22104AM  22356.55745239 -.00001141  00000-0 -53595-4 0  9996,2 53623  53.2176 100.3847 0001772  38.1558 321.9559 15.08836143 17961,6917.892,95.438,540.9830000000002,538.531,0.0
53623.0,STARLINK-4573,PAYLOAD,2022-12-22 19:44:15,15.08841296,0.0002167,53.2188,99.1927,42.7914,317.3246,3.2175e-05,2.24e-06,0.0,0 STARLINK-4573,1 53623U 22104AM  22356.82240710  .00000224  00000-0  32175-4 0  9990,2 53623  53.2188  99.1927 0002167  42.7914 317.3246 15.08841296 18007,6917.876,95.437,541.241,538.242,0.0
53623.0,STARLINK-4573,PAYLOAD,2022-12-23 13:13:31,15.08831965,0.0002083,53.2184,95.9246,35.592,324.5211,-2.5442e-06,-3.29e-06,0.0,0 STARLINK-4573,1 53623U 22104AM  22357.55105696 -.00000329  00000-0 -25442-5 0  9992,2 53623  53.2184  95.9246 0002083  35.5920 324.5211 15.08831965 18111,6917.905,95.438,541.211,538.3290000000002,0.0
53623.0,STARLINK-4573,PAYLOAD,2022-12-23 17:59:40,15.08833646,0.0002035,53.2181,95.0321,37.5316,322.5818,1.0072e-05,-1.28e-06,0.0,0 STARLINK-4573,1 53623U 22104AM  22357.74977626 -.00000128  00000-0  10072-4 0  9991,2 53623  53.2181  95.0321 0002035  37.5316 322.5818 15.08833646 18828,6917.9,95.438,541.173,538.357,0.0
53623.0,STARLINK-4573,PAYLOAD,2022-12-24 13:04:17,15.08841395,0.000189,53.218,91.4633,37.0272,323.085,8.5675e-05,1.076e-05,0.0,0 STARLINK-4573,1 53623U 22104AM  22358.54464919  .00001076  00000-0  85675-4 0  9999,2 53623  53.2180  91.4633 0001890  37.0272 323.0850 15.08841395 18267,6917.876,95.437,541.049,538.434,0.0
53623.0,STARLINK-4573,PAYLOAD,2022-12-24 17:50:27,15.08843362,0.0001957,53.2179,90.5706,42.1039,318.0103,4.434e-05,4.18e-06,0.0,0 STARLINK-4573,1 53623U 22104AM  22358.74336927  .00000418  00000-0  44340-4 0  9991,2 53623  53.2179  90.5706 0001957  42.1039 318.0103 15.08843362 18977,6917.87,95.437,541.089,538.381,0.0
53623.0,STARLINK-4573,PAYLOAD,2022-12-25 17:41:15,15.08827073,0.0002028,53.2185,86.1103,38.7794,321.3343,-1.0701e-05,-4.58e-06,0.0,0 STARLINK-4573,1 53623U 22104AM  22359.73698196 -.00000458  00000-0 -10701-4 0  9990,2 53623  53.2185  86.1103 0002028  38.7794 321.3343 15.08827073 18441,6917.92,95.438,541.188,538.382,0.0
53623.0,STARLINK-4573,PAYLOAD,2022-12-26 12:45:53,15.0884449,0.0001866,53.2177,82.5438,33.7832,326.3279,-0.00031379,-5.279e-05,0.0,0 STARLINK-4573,1 53623U 22104AM  22360.53186717 -.00005279  00000-0 -31379-3 0  9990,2 53623  53.2177  82.5438 0001866  33.7832 326.3279 15.08844490 19244,6917.8669999999975,95.437,541.023,538.441,0.0
53623.0,STARLINK-4573,PAYLOAD,2022-12-26 17:32:02,15.08837701,0.0002039,53.2178,81.6505,39.4555,320.6586,-6.614e-05,-1.341e-05,0.0,0 STARLINK-4573,1 53623U 22104AM  22360.73058130 -.00001341  00000-0 -66140-4 0  9990,2 53623  53.2178  81.6505 0002039  39.4555 320.6586 15.08837701 19276,6917.887,95.438,541.163,538.342,0.0
53623.0,STARLINK-4573,PAYLOAD,2022-12-26 22:18:11,15.08844313,0.0002097,53.2183,80.7586,37.2563,322.8574,6.2122e-06,-1.89e-06,0.0,0 STARLINK-4573,1 53623U 22104AM  22360.92929489 -.00000189  00000-0  62122-5 0  9990,2 53623  53.2183  80.7586 0002097  37.2563 322.8574 15.08844313 18626,6917.8669999999975,95.437,541.183,538.2819999999998,0.0
53623.0,STARLINK-4573,PAYLOAD,2022-12-27 12:36:38,15.0884965,0.0002074,53.2181,78.0822,38.0864,322.0274,0.0001957,2.829e-05,0.0,0 STARLINK-4573,1 53623U 22104AM  22361.52544188  .00002829  00000-0  19570-3 0  9995,2 53623  53.2181  78.0822 0002074  38.0864 322.0274 15.08849650 18713,6917.851,95.437,541.151,538.281,0.0
53623.0,STARLINK-4573,PAYLOAD,2022-12-27 23:44:19,15.08876638,0.0002125,53.2181,76.0008,34.2281,325.8848,-0.00021267,-3.675e-05,0.0,0 STARLINK-4573,1 53623U 22104AM  22361.98911395 -.00003675  00000-0 -21267-3 0  9991,2 53623  53.2181  76.0008 0002125  34.2281 325.8848 15.08876638 18786,6917.768,95.435,541.1030000000002,538.163,0.0
53623.0,STARLINK-4573,PAYLOAD,2022-12-28 14:02:49,15.0883997,0.000251,53.2188,73.3225,8.1696,351.9336,2.5139e-05,1.12e-06,0.0,0 STARLINK-4573,1 53623U 22104AM  22362.58529037  .00000112  00000-0  25139-4 0  9990,2 53623  53.2188  73.3225 0002510   8.1696 351.9336 15.08839970 18872,6917.88,95.438,541.482,538.009,0.0
53623.0,STARLINK-4573,PAYLOAD,2022-12-29 10:42:51,15.08832657,0.0002038,53.2192,69.4598,41.4965,318.6181,-0.00019886,-3.451e-05,0.0,0 STARLINK-4573,1 53623U 22104AM  22363.44642621 -.00003451  00000-0 -19886-3 0  9993,2 53623  53.2192  69.4598 0002038  41.4965 318.6181 15.08832657 19009,6917.903,95.438,541.178,538.3580000000002,0.0
